[{"OBJECT_NAME":"STARLINK-2068","OBJECT_ID":"2021-017A","EPOCH":"2026-03-09T14:32:55.948704","MEAN_MOTION":15.30209265,"ECCENTRICITY":0.0001151,"INCLINATION":53.1619,"RA_OF_ASC_NODE":191.406,"ARG_OF_PERICENTER":86.6578,"MEAN_ANOMALY":273.4554,"EPHEMERIS_TYPE":0,"CLASSIFICATION_TYPE":"U","NORAD_CAT_ID":47722,"ELEMENT_SET_NO":999,"REV_AT_EPOCH":27806,"BSTAR":0.00062681,"MEAN_MOTION_DOT":0.00018256,"MEAN_MOTION_DDOT":0},{"OBJECT_NAME":"NUSAT-49 (KLARA DAN VON NEUMANN)","OBJECT_ID":"2024-149AJ","EPOCH":"2026-03-09T19:09:16.004160","MEAN_MOTION":15.30828857,"ECCENTRICITY":0.00011321,"INCLINATION":97.3807,"RA_OF_ASC_NODE":150.738,"ARG_OF_PERICENTER":286.7761,"MEAN_ANOMALY":73.3356,"EPHEMERIS_TYPE":0,"CLASSIFICATION_TYPE":"U","NORAD_CAT_ID":60500,"ELEMENT_SET_NO":999,"REV_AT_EPOCH":8693,"BSTAR":0.00043568345,"MEAN_MOTION_DOT":0.00012912,"MEAN_MOTION_DDOT":0}]
