STARLINK-2068           
1 47722U 21017A   26068.60620311  .00018256  00000+0  62681-3 0  9991
2 47722  53.1619 191.4060 0001151  86.6578 273.4554 15.30209265278064
NUSAT-49 (KLARA DAN VO*)
1 60500U 24149AJ  26068.79810190  .00012912  00000+0  43568-3 0  9991
2 60500  97.3807 150.7380 0001132 286.7761  73.3356 15.30828857 86935
